INMARSAT 3-F5           
1 25153U 98006B   26117.16718249 -.00000297  00000+0  00000+0 0  9991
2 25153   9.5825  53.7586 0005048 341.4989 186.1021  1.00271782103388
UFO 8 (USA 138)         
1 25258U 98016A   26116.59521288 -.00000198  00000+0  00000+0 0  9999
2 25258  11.0709  23.0782 0006031 277.6737 281.1473  1.00277858103348
COSMOS 2350             
1 25315U 98025A   26116.99016575 -.00000120  00000+0  00000+0 0  9990
2 25315  13.9452   4.2229 0004800 175.9390 105.9341  1.00286664102499
SL-12 R/B(2)            
1 25318U 98025D   26116.44975140 -.00000019  00000+0  00000+0 0  9992
2 25318  13.9695   4.2633 0029660 131.5997  60.8786  1.00064806102250
BADR-3 (ARABSAT-3A)     
1 25638U 99009A   26117.20956411  .00000107  00000+0  00000+0 0  9992
2 25638  11.8543  32.8985 0006996 342.9230 123.9360  1.00144785 99457
RADUGA-1 4              
1 25642U 99010A   26116.93119934 -.00000369  00000+0  00000+0 0  9990
2 25642  15.6257   2.0518 0006465 290.1091   6.8389  1.00234261 99434
TELKOM 1                
1 25880U 99042A   26116.93730763 -.00000125  00000+0  00000+0 0  9998
2 25880   7.5560  66.8739 0016253 262.3753 301.8307  1.00242607 97877
ABS-7                   
1 25894U 99046A   26116.77336368 -.00000272  00000+0  00000+0 0  9995
2 25894   6.3514  71.3747 0003067 299.2278 271.0817  0.99978912 96569
YAMAL 102               
1 25897U 99047B   26117.05595477 -.00000305  00000+0  00000+0 0  9996
2 25897  13.6521  13.0777 0004994  21.1606 158.1737  0.99992841 97489
ABS-6                   
1 25924U 99053A   26116.89489183 -.00000131  00000+0  00000+0 0  9998
2 25924   0.0522  88.8943 0003051 327.0123 280.1575  1.00270741 97321
UFO 10 (USA 146)        
1 25967U 99063A   26117.08100193 -.00000195  00000+0  00000+0 0  9999
2 25967   9.8472  27.4738 0004218  37.0885 156.8905  1.00272423 96839
GALAXY 10R (G-10R)      
1 26056U 00002A   26116.57058374 -.00000136  00000+0  00000+0 0  9995
2 26056  12.0941  31.6011 0002560 178.5598  24.0831  0.99646336 95813
GARUDA 1                
1 26089U 00011A   26117.21520597  .00000065  00000+0  00000+0 0  9994
2 26089   9.5307  64.4962 0002951 286.3873 135.1770  0.99918697 41159
SL-12 R/B(2)            
1 26101U 00013D   26117.05413476 -.00000288  00000+0  00000+0 0  9998
2 26101  14.3202   1.2065 0006995  63.8121 117.3789  1.00757710 96120
ASIASTAR                
1 26107U 00016A   26116.79994303 -.00000340  00000+0  00000+0 0  9999
2 26107   9.0129  58.6966 0005016  18.4141 170.6243  1.00274143 95403
INSAT-3B                
1 26108U 00016B   26116.69938667 -.00000288  00000+0  00000+0 0  9991
2 26108  10.7540  45.9611 0006450 245.7395 131.8455  0.99661972 50924
GALAXY 4R (G-4R)        
1 26298U 00020A   26116.63123892  .00000092  00000+0  00000+0 0  9998
2 26298  12.6790  24.4466 0004106 244.7828  28.8326  0.99834234 95102
