[{"OBJECT_NAME":"INMARSAT 3-F5","OBJECT_ID":"1998-006B","EPOCH":"2026-04-27T04:00:44.567136","MEAN_MOTION":1.00271782,"ECCENTRICITY":0.0005048,"INCLINATION":9.5825,"RA_OF_ASC_NODE":53.7586,"ARG_OF_PERICENTER":341.4989,"MEAN_ANOMALY":186.1021,"EPHEMERIS_TYPE":0,"CLASSIFICATION_TYPE":"U","NORAD_CAT_ID":25153,"ELEMENT_SET_NO":999,"REV_AT_EPOCH":10338,"BSTAR":0,"MEAN_MOTION_DOT":-2.97e-6,"MEAN_MOTION_DDOT":0},{"OBJECT_NAME":"UFO 8 (USA 138)","OBJECT_ID":"1998-016A","EPOCH":"2026-04-26T14:17:06.392832","MEAN_MOTION":1.00277858,"ECCENTRICITY":0.00060314,"INCLINATION":11.0709,"RA_OF_ASC_NODE":23.0782,"ARG_OF_PERICENTER":277.6737,"MEAN_ANOMALY":281.1473,"EPHEMERIS_TYPE":0,"CLASSIFICATION_TYPE":"U","NORAD_CAT_ID":25258,"ELEMENT_SET_NO":999,"REV_AT_EPOCH":10334,"BSTAR":0,"MEAN_MOTION_DOT":-1.98e-6,"MEAN_MOTION_DDOT":0},{"OBJECT_NAME":"COSMOS 2350","OBJECT_ID":"1998-025A","EPOCH":"2026-04-26T23:45:50.320800","MEAN_MOTION":1.00286664,"ECCENTRICITY":0.00048,"INCLINATION":13.9452,"RA_OF_ASC_NODE":4.2229,"ARG_OF_PERICENTER":175.939,"MEAN_ANOMALY":105.9341,"EPHEMERIS_TYPE":0,"CLASSIFICATION_TYPE":"U","NORAD_CAT_ID":25315,"ELEMENT_SET_NO":999,"REV_AT_EPOCH":10249,"BSTAR":0,"MEAN_MOTION_DOT":-1.2e-6,"MEAN_MOTION_DDOT":0},{"OBJECT_NAME":"SL-12 R/B(2)","OBJECT_ID":"1998-025D","EPOCH":"2026-04-26T10:47:38.520960","MEAN_MOTION":1.00064806,"ECCENTRICITY":0.00296609,"INCLINATION":13.9695,"RA_OF_ASC_NODE":4.2633,"ARG_OF_PERICENTER":131.5997,"MEAN_ANOMALY":60.8786,"EPHEMERIS_TYPE":0,"CLASSIFICATION_TYPE":"U","NORAD_CAT_ID":25318,"ELEMENT_SET_NO":999,"REV_AT_EPOCH":10225,"BSTAR":0,"MEAN_MOTION_DOT":-1.9e-7,"MEAN_MOTION_DDOT":0},{"OBJECT_NAME":"BADR-3 (ARABSAT-3A)","OBJECT_ID":"1999-009A","EPOCH":"2026-04-27T05:01:46.339104","MEAN_MOTION":1.00144785,"ECCENTRICITY":0.0006996,"INCLINATION":11.8543,"RA_OF_ASC_NODE":32.8985,"ARG_OF_PERICENTER":342.923,"MEAN_ANOMALY":123.936,"EPHEMERIS_TYPE":0,"CLASSIFICATION_TYPE":"U","NORAD_CAT_ID":25638,"ELEMENT_SET_NO":999,"REV_AT_EPOCH":9945,"BSTAR":0,"MEAN_MOTION_DOT":1.07e-6,"MEAN_MOTION_DDOT":0},{"OBJECT_NAME":"RADUGA-1 4","OBJECT_ID":"1999-010A","EPOCH":"2026-04-26T22:20:55.622976","MEAN_MOTION":1.00234261,"ECCENTRICITY":0.0006465,"INCLINATION":15.6257,"RA_OF_ASC_NODE":2.0518,"ARG_OF_PERICENTER":290.1091,"MEAN_ANOMALY":6.8389,"EPHEMERIS_TYPE":0,"CLASSIFICATION_TYPE":"U","NORAD_CAT_ID":25642,"ELEMENT_SET_NO":999,"REV_AT_EPOCH":9943,"BSTAR":0,"MEAN_MOTION_DOT":-3.69e-6,"MEAN_MOTION_DDOT":0},{"OBJECT_NAME":"TELKOM 1","OBJECT_ID":"1999-042A","EPOCH":"2026-04-26T22:29:43.379232","MEAN_MOTION":1.00242607,"ECCENTRICITY":0.0016253,"INCLINATION":7.556,"RA_OF_ASC_NODE":66.8739,"ARG_OF_PERICENTER":262.3753,"MEAN_ANOMALY":301.8307,"EPHEMERIS_TYPE":0,"CLASSIFICATION_TYPE":"U","NORAD_CAT_ID":25880,"ELEMENT_SET_NO":999,"REV_AT_EPOCH":9787,"BSTAR":0,"MEAN_MOTION_DOT":-1.25e-6,"MEAN_MOTION_DDOT":0},{"OBJECT_NAME":"ABS-7","OBJECT_ID":"1999-046A","EPOCH":"2026-04-26T18:33:38.621952","MEAN_MOTION":0.99978912,"ECCENTRICITY":0.00030679,"INCLINATION":6.3514,"RA_OF_ASC_NODE":71.3747,"ARG_OF_PERICENTER":299.2278,"MEAN_ANOMALY":271.0817,"EPHEMERIS_TYPE":0,"CLASSIFICATION_TYPE":"U","NORAD_CAT_ID":25894,"ELEMENT_SET_NO":999,"REV_AT_EPOCH":9656,"BSTAR":0,"MEAN_MOTION_DOT":-2.72e-6,"MEAN_MOTION_DDOT":0},{"OBJECT_NAME":"YAMAL 102","OBJECT_ID":"1999-047B","EPOCH":"2026-04-27T01:20:34.492128","MEAN_MOTION":0.99992841,"ECCENTRICITY":0.0004994,"INCLINATION":13.6521,"RA_OF_ASC_NODE":13.0777,"ARG_OF_PERICENTER":21.1606,"MEAN_ANOMALY":158.1737,"EPHEMERIS_TYPE":0,"CLASSIFICATION_TYPE":"U","NORAD_CAT_ID":25897,"ELEMENT_SET_NO":999,"REV_AT_EPOCH":9748,"BSTAR":0,"MEAN_MOTION_DOT":-3.05e-6,"MEAN_MOTION_DDOT":0},{"OBJECT_NAME":"ABS-6","OBJECT_ID":"1999-053A","EPOCH":"2026-04-26T21:28:38.654112","MEAN_MOTION":1.00270741,"ECCENTRICITY":0.0003051,"INCLINATION":0.0522,"RA_OF_ASC_NODE":88.8943,"ARG_OF_PERICENTER":327.0123,"MEAN_ANOMALY":280.1575,"EPHEMERIS_TYPE":0,"CLASSIFICATION_TYPE":"U","NORAD_CAT_ID":25924,"ELEMENT_SET_NO":999,"REV_AT_EPOCH":9732,"BSTAR":0,"MEAN_MOTION_DOT":-1.31e-6,"MEAN_MOTION_DDOT":0},{"OBJECT_NAME":"UFO 10 (USA 146)","OBJECT_ID":"1999-063A","EPOCH":"2026-04-27T01:56:38.566752","MEAN_MOTION":1.00272423,"ECCENTRICITY":0.0004218,"INCLINATION":9.8472,"RA_OF_ASC_NODE":27.4738,"ARG_OF_PERICENTER":37.0885,"MEAN_ANOMALY":156.8905,"EPHEMERIS_TYPE":0,"CLASSIFICATION_TYPE":"U","NORAD_CAT_ID":25967,"ELEMENT_SET_NO":999,"REV_AT_EPOCH":9683,"BSTAR":0,"MEAN_MOTION_DOT":-1.95e-6,"MEAN_MOTION_DDOT":0},{"OBJECT_NAME":"GALAXY 10R (G-10R)","OBJECT_ID":"2000-002A","EPOCH":"2026-04-26T13:41:38.435136","MEAN_MOTION":0.99646336,"ECCENTRICITY":0.000256,"INCLINATION":12.0941,"RA_OF_ASC_NODE":31.6011,"ARG_OF_PERICENTER":178.5598,"MEAN_ANOMALY":24.0831,"EPHEMERIS_TYPE":0,"CLASSIFICATION_TYPE":"U","NORAD_CAT_ID":26056,"ELEMENT_SET_NO":999,"REV_AT_EPOCH":9581,"BSTAR":0,"MEAN_MOTION_DOT":-1.36e-6,"MEAN_MOTION_DDOT":0},{"OBJECT_NAME":"GARUDA 1","OBJECT_ID":"2000-011A","EPOCH":"2026-04-27T05:09:53.795808","MEAN_MOTION":0.99918697,"ECCENTRICITY":0.0002951,"INCLINATION":9.5307,"RA_OF_ASC_NODE":64.4962,"ARG_OF_PERICENTER":286.3873,"MEAN_ANOMALY":135.177,"EPHEMERIS_TYPE":0,"CLASSIFICATION_TYPE":"U","NORAD_CAT_ID":26089,"ELEMENT_SET_NO":999,"REV_AT_EPOCH":4115,"BSTAR":0,"MEAN_MOTION_DOT":6.5e-7,"MEAN_MOTION_DDOT":0},{"OBJECT_NAME":"SL-12 R/B(2)","OBJECT_ID":"2000-013D","EPOCH":"2026-04-27T01:17:57.243264","MEAN_MOTION":1.0075771,"ECCENTRICITY":0.0006995,"INCLINATION":14.3202,"RA_OF_ASC_NODE":1.2065,"ARG_OF_PERICENTER":63.8121,"MEAN_ANOMALY":117.3789,"EPHEMERIS_TYPE":0,"CLASSIFICATION_TYPE":"U","NORAD_CAT_ID":26101,"ELEMENT_SET_NO":999,"REV_AT_EPOCH":9612,"BSTAR":0,"MEAN_MOTION_DOT":-2.88e-6,"MEAN_MOTION_DDOT":0},{"OBJECT_NAME":"ASIASTAR","OBJECT_ID":"2000-016A","EPOCH":"2026-04-26T19:11:55.077792","MEAN_MOTION":1.00274143,"ECCENTRICITY":0.00050167,"INCLINATION":9.0129,"RA_OF_ASC_NODE":58.6966,"ARG_OF_PERICENTER":18.4141,"MEAN_ANOMALY":170.6243,"EPHEMERIS_TYPE":0,"CLASSIFICATION_TYPE":"U","NORAD_CAT_ID":26107,"ELEMENT_SET_NO":999,"REV_AT_EPOCH":9540,"BSTAR":0,"MEAN_MOTION_DOT":-3.4e-6,"MEAN_MOTION_DDOT":0},{"OBJECT_NAME":"INSAT-3B","OBJECT_ID":"2000-016B","EPOCH":"2026-04-26T16:47:07.008288","MEAN_MOTION":0.99661972,"ECCENTRICITY":0.00064503,"INCLINATION":10.754,"RA_OF_ASC_NODE":45.9611,"ARG_OF_PERICENTER":245.7395,"MEAN_ANOMALY":131.8455,"EPHEMERIS_TYPE":0,"CLASSIFICATION_TYPE":"U","NORAD_CAT_ID":26108,"ELEMENT_SET_NO":999,"REV_AT_EPOCH":5092,"BSTAR":0,"MEAN_MOTION_DOT":-2.88e-6,"MEAN_MOTION_DDOT":0},{"OBJECT_NAME":"GALAXY 4R (G-4R)","OBJECT_ID":"2000-020A","EPOCH":"2026-04-26T15:08:59.042688","MEAN_MOTION":0.99834234,"ECCENTRICITY":0.00041064,"INCLINATION":12.679,"RA_OF_ASC_NODE":24.4466,"ARG_OF_PERICENTER":244.7828,"MEAN_ANOMALY":28.8326,"EPHEMERIS_TYPE":0,"CLASSIFICATION_TYPE":"U","NORAD_CAT_ID":26298,"ELEMENT_SET_NO":999,"REV_AT_EPOCH":9510,"BSTAR":0,"MEAN_MOTION_DOT":9.2e-7,"MEAN_MOTION_DDOT":0}]
